              TDR Cartesian                         TDR Cartesian  
    -----------------------------------       --------------------------------
     X    =       -4755833.54                 X    =        -1449578.06
     Y    =       14404135.54  feet           Y    =         4390380.51  meter
     Z    =       16252435.66                 Z    =         4953742.39
     XDOT =     -23090.259421                 XDOT =       -7037.911072
     YDOT =        431.555180  feet/sec       YDOT =         131.538019  meter/sec
     ZDOT =      -7116.168780                 ZDOT =       -2169.008244
  
  
    The mean element set is posted at the UTC for which position is
    just north of the next ascending node relative to the above
    vector time
 
 
    TWO LINE MEAN ELEMENT SET
  
    ISS
    1 25544U 98067A   16105.56165104  .00016717  00000-0  10270-3 0  9075
    2 25544  51.6436  15.3882 0001596  23.2436 336.8789 15.54189550 35088
  
  
    Satellite: ISS
    Catalog Number: 25544
    Epoch time:      16105.56165104   =   yrday.fracday
    Element set:     907
    Inclination:       51.6436  deg
    RA of node:        15.3882  deg
    Eccentricity:     .0001596     
    Arg of perigee:    23.2436  deg
    Mean anomaly:     336.8789  deg
    Mean motion:   15.54189550  rev/day
    Decay rate:    1.67170E-04  rev/day^2
    Epoch rev:            3508
    Checksum:              317
 
 
    Coasting Arc #9 (Orbit 3522)
    ---------------------------------------
 
    Vector Time (GMT): 2016/106/12:24:44.014
    Vector Time (MET): N/A
    Weight (LBS)     : 943981.9
 
              M50 Cartesian                         M50 Keplerian  
    -----------------------------------       --------------------------------
     X    =        4799727.41                 A    =         6782088.42  meter
     Y    =       -2455300.11  meter          E    =           .0007740
     Z    =       -4121976.66                 I    =           51.70964
     XDOT =       5311.690938                 Wp   =           96.49571
     YDOT =       3995.213230  meter/sec      RA   =           10.03668  deg
     ZDOT =       3810.559374                 TA   =          212.80352
                                              MA   =          212.85159
                                              Ha   =            221.272  n.mi
                                              Hp   =            214.404
 
              M50 Cartesian                         J2K Cartesian  
    -----------------------------------       --------------------------------
     X    =       15747137.17                 X    =         4846849.28
     Y    =       -8055446.57  feet           Y    =        -2401363.20  meter
     Z    =      -13523545.47                 Z    =        -4098546.12
     XDOT =      17426.807538                 XDOT =        5248.110609
     YDOT =      13107.654955  feet/sec       YDOT =        4054.256873  meter/sec
     ZDOT =      12501.835217                 ZDOT =        3836.207548
 
              TDR Cartesian                         TDR Cartesian  
    -----------------------------------       --------------------------------
     X    =        9832418.15                 X    =         2996921.05
     Y    =      -14796705.26  feet           Y    =        -4510035.76  meter
     Z    =      -13421247.97                 Z    =        -4090796.38
     XDOT =      20469.670125                 XDOT =        6239.155454
     YDOT =       2177.908931  feet/sec       YDOT =         663.826642  meter/sec
     ZDOT =      12612.485990                 ZDOT =        3844.285730
  
  
    The mean element set is posted at the UTC for which position is
    just north of the next ascending node relative to the above
    vector time
 
 
    TWO LINE MEAN ELEMENT SET
  
    ISS
    1 25544U 98067A   16106.52615893  .00016717  00000-0  10270-3 0  9088
    2 25544  51.6449  10.5798 0001600  26.6663 333.4571 15.54180706 35233
  
  
    Satellite: ISS
    Catalog Number: 25544
    Epoch time:      16106.52615893   =   yrday.fracday
    Element set:     908
    Inclination:       51.6449  deg
    RA of node:        10.5798  deg
    Eccentricity:     .0001600     
    Arg of perigee:    26.6663  deg
    Mean anomaly:     333.4571  deg
    Mean motion:   15.54180706  rev/day
    Decay rate:    1.67170E-04  rev/day^2
    Epoch rev:            3523
    Checksum:              305
 
 
    Coasting Arc #10 (Orbit 3538)
    ---------------------------------------
 
    Vector Time (GMT): 2016/107/12:24:44.014
    Vector Time (MET): N/A
    Weight (LBS)     : 943981.9
 
              M50 Cartesian                         M50 Keplerian  
    -----------------------------------       --------------------------------
     X    =       -5937958.03                 A    =         6785959.04  meter
     Y    =        1695072.40  meter          E    =           .0014222
     Z    =        2799929.85                 I    =           51.69032
     XDOT =      -3672.312630                 Wp   =           94.21377
     YDOT =      -4381.275256  meter/sec      RA   =            5.05833  deg
     ZDOT =      -5114.287765                 TA   =           54.03222
                                              MA   =           53.90040
                                              Ha   =            221.386  n.mi
                                              Hp   =            214.268
 
              M50 Cartesian                         J2K Cartesian  
    -----------------------------------       --------------------------------
     X    =      -19481489.59                 X    =        -5970072.31
     Y    =        5561261.15  feet           Y    =         1628490.88  meter
     Z    =        9186121.54                 Z    =         2771006.53
     XDOT =     -12048.269783                 XDOT =       -3598.204123
     YDOT =     -14374.262650  feet/sec       YDOT =       -4421.927574  meter/sec
     ZDOT =     -16779.159334                 ZDOT =       -5131.946598
 
              TDR Cartesian                         TDR Cartesian  
    -----------------------------------       --------------------------------
     X    =      -14035647.34                 X    =        -4278065.31
     Y    =       14688627.98  feet           Y    =         4477093.81  meter
     Z    =        9060116.05                 Z    =         2761523.37
     XDOT =     -16503.491760                 XDOT =       -5030.264288
     YDOT =      -5329.632606  feet/sec       YDOT =       -1624.472018  meter/sec
     ZDOT =     -16855.013982                 ZDOT =       -5137.408262
  
  
    The mean element set is posted at the UTC for which position is
    just north of the next ascending node relative to the above
    vector time
 
 
    TWO LINE MEAN ELEMENT SET
  
    ISS
    1 25544U 98067A   16107.55495688  .00016717  00000-0  10270-3 0  9091
    2 25544  51.6444   5.4517 0001640  35.7361 324.3901 15.54176133 35392
  
  
    Satellite: ISS
    Catalog Number: 25544
    Epoch time:      16107.55495688   =   yrday.fracday
    Element set:     909
    Inclination:       51.6444  deg
    RA of node:         5.4517  deg
    Eccentricity:     .0001640     
    Arg of perigee:    35.7361  deg
    Mean anomaly:     324.3901  deg
    Mean motion:   15.54176133  rev/day
    Decay rate:    1.67170E-04  rev/day^2
    Epoch rev:            3539
    Checksum:              307
 
 
    Coasting Arc #11 (Orbit 3553)
    ---------------------------------------
 
    Vector Time (GMT): 2016/108/12:24:44.014
    Vector Time (MET): N/A
    Weight (LBS)     : 943981.9
 
              M50 Cartesian                         M50 Keplerian  
    -----------------------------------       --------------------------------
     X    =        6607382.61                 A    =         6788480.11  meter
     Y    =        -946970.71  meter          E    =           .0010813
     Z    =       -1210270.67                 I    =           51.66748
     XDOT =       1730.868152                 Wp   =           36.59369
     YDOT =       4634.793338  meter/sec      RA   =             .08637  deg
     ZDOT =       5858.515473                 TA   =          310.26003
                                              MA   =          310.35454
                                              Ha   =            221.242  n.mi
                                              Hp   =            214.226
 
              M50 Cartesian                         J2K Cartesian  
    -----------------------------------       --------------------------------
     X    =       21677764.48                 X    =         6623359.80
     Y    =       -3106859.30  feet           Y    =         -872993.35  meter
     Z    =       -3970704.31                 Z    =        -1178134.63
     XDOT =       5678.701287                 XDOT =        1650.453830
     YDOT =      15206.014889  feet/sec       YDOT =        4653.699994  meter/sec
     ZDOT =      19220.851288                 ZDOT =        5866.727871
 
              TDR Cartesian                         TDR Cartesian  
    -----------------------------------       --------------------------------
     X    =       16905861.27                 X    =         5152906.51
     Y    =      -13959248.17  feet           Y    =        -4254778.84  meter
     Z    =       -3830898.82                 Z    =        -1167657.96
     XDOT =      11646.705604                 XDOT =        3549.915868
     YDOT =       8853.844497  feet/sec       YDOT =        2698.651803  meter/sec
     ZDOT =      19255.609916                 ZDOT =        5869.109902
  
  
    The mean element set is posted at the UTC for which position is
    just north of the next ascending node relative to the above
    vector time
 
 
    TWO LINE MEAN ELEMENT SET
  
    ISS
    1 25544U 98067A   16108.51944383  .00016717  00000-0  10270-3 0  9101
    2 25544  51.6446    .6436 0001550  31.1921 328.9323 15.54220558 35549
  
